$$SOE
2459580.500000000, A.D. 2022-Jan-01 00:00:00.0000, 9.387487293487497E+07, -6.899982560044314E+08, -8.030317965458819E+07,
2459587.500000000, A.D. 2022-Jan-08 00:00:00.0000, 1.013651795841656E+08, -6.899532406445768E+08, -8.092150909152469E+07,
2459594.500000000, A.D. 2022-Jan-15 00:00:00.0000, 1.088412668503869E+08, -6.898113657782032E+08, -8.152847551570955E+07,
2459601.500000000, A.D. 2022-Jan-22 00:00:00.0000, 1.163021574060696E+08, -6.895730847107164E+08, -8.212404522205746E+07,
2459608.500000000, A.D. 2022-Jan-29 00:00:00.0000, 1.237468841807558E+08, -6.892388508097837E+08, -8.270818547126433E+07,
2459615.500000000, A.D. 2022-Feb-05 00:00:00.0000, 1.311744879378818E+08, -6.888091180864383E+08, -8.328086431448954E+07,
2459622.500000000, A.D. 2022-Feb-12 00:00:00.0000, 1.385840170281465E+08, -6.882843428497361E+08, -8.384205070389372E+07,
2459629.500000000, A.D. 2022-Feb-19 00:00:00.0000, 1.459745279946663E+08, -6.876649840660183E+08, -8.439171457405195E+07,
2459636.500000000, A.D. 2022-Feb-26 00:00:00.0000, 1.533450857185061E+08, -6.869515031457701E+08, -8.492982683322099E+07,
2459643.500000000, A.D. 2022-Mar-05 00:00:00.0000, 1.606947632637897E+08, -6.861443637748082E+08, -8.545635932971576E+07,
2459650.500000000, A.D. 2022-Mar-12 00:00:00.0000, 1.680226416441548E+08, -6.852440318552819E+08, -8.597128481938180E+07,
2459657.500000000, A.D. 2022-Mar-19 00:00:00.0000, 1.753278095815731E+08, -6.842509755281341E+08, -8.647457693867335E+07,
2459664.500000000, A.D. 2022-Mar-26 00:00:00.0000, 1.826093632799341E+08, -6.831656652826068E+08, -8.696621018615240E+07,
2459671.500000000, A.D. 2022-Apr-02 00:00:00.0000, 1.898664062812138E+08, -6.819885742083004E+08, -8.744615992345443E+07,
2459678.500000000, A.D. 2022-Apr-09 00:00:00.0000, 1.970980496763025E+08, -6.807201783846951E+08, -8.791440242050868E+07,
2459685.500000000, A.D. 2022-Apr-16 00:00:00.0000, 2.043034130275638E+08, -6.793609567539120E+08, -8.837091492450914E+07,
2459692.500000000, A.D. 2022-Apr-23 00:00:00.0000, 2.114816247340232E+08, -6.779113893922490E+08, -8.881567554774937E+07,
2459699.500000000, A.D. 2022-Apr-30 00:00:00.0000, 2.186318199687037E+08, -6.763719564252423E+08, -8.924866298627463E+07,
2459706.500000000, A.D. 2022-May-07 00:00:00.0000, 2.257531392507484E+08, -6.747431395590928E+08, -8.966985651152629E+07,
2459713.500000000, A.D. 2022-May-14 00:00:00.0000, 2.328447290418996E+08, -6.730254231898811E+08, -9.007923611415410E+07,
2459720.500000000, A.D. 2022-May-21 00:00:00.0000, 2.399057423364328E+08, -6.712192943317510E+08, -9.047678255170560E+07,
2459727.500000000, A.D. 2022-May-28 00:00:00.0000, 2.469353387658522E+08, -6.693252423227738E+08, -9.086247733463648E+07,
2459734.500000000, A.D. 2022-Jun-04 00:00:00.0000, 2.539326844955349E+08, -6.673437586212872E+08, -9.123630270162663E+07,
2459741.500000000, A.D. 2022-Jun-11 00:00:00.0000, 2.608969520580064E+08, -6.652753366904764E+08, -9.159824159728506E+07,
2459748.500000000, A.D. 2022-Jun-18 00:00:00.0000, 2.678273201614622E+08, -6.631204719577625E+08, -9.194827765465218E+07,
2459755.500000000, A.D. 2022-Jun-25 00:00:00.0000, 2.747229735028744E+08, -6.608796618818812E+08, -9.228639518782297E+07,
2459762.500000000, A.D. 2022-Jul-02 00:00:00.0000, 2.815831027196608E+08, -6.585534061930296E+08, -9.261257921222642E+07,
2459769.500000000, A.D. 2022-Jul-09 00:00:00.0000, 2.884069048701925E+08, -6.561422071288006E+08, -9.292681551375362E+07,
2459776.500000000, A.D. 2022-Jul-16 00:00:00.0000, 2.951935843879477E+08, -6.536465685829521E+08, -9.322909067301580E+07,
2459783.500000000, A.D. 2022-Jul-23 00:00:00.0000, 3.019423523107418E+08, -6.510669940891695E+08, -9.351939183651590E+07,
2459790.500000000, A.D. 2022-Jul-30 00:00:00.0000, 3.086524238689030E+08, -6.484039869933462E+08, -9.379770651624012E+07,
2459797.500000000, A.D. 2022-Aug-06 00:00:00.0000, 3.153230180312028E+08, -6.456580521658520E+08, -9.406402269453189E+07,
2459804.500000000, A.D. 2022-Aug-13 00:00:00.0000, 3.219533581855357E+08, -6.428296964993029E+08, -9.431832893341488E+07,
2459811.500000000, A.D. 2022-Aug-20 00:00:00.0000, 3.285426723850740E+08, -6.399194286953198E+08, -9.456061438532409E+07,
2459818.500000000, A.D. 2022-Aug-27 00:00:00.0000, 3.350901932280239E+08, -6.369277590668671E+08, -9.479086877065438E+07,
2459825.500000000, A.D. 2022-Sep-03 00:00:00.0000, 3.415951576188766E+08, -6.338551994667206E+08, -9.500908235371810E+07,
2459832.500000000, A.D. 2022-Sep-10 00:00:00.0000, 3.480568065011934E+08, -6.307022633181282E+08, -9.521524592329681E+07,
2459839.500000000, A.D. 2022-Sep-17 00:00:00.0000, 3.544743845912641E+08, -6.274694657493513E+08, -9.540935078056821E+07,
2459846.500000000, A.D. 2022-Sep-24 00:00:00.0000, 3.608471401730248E+08, -6.241573238828697E+08, -9.559138874412611E+07,
2459853.500000000, A.D. 2022-Oct-01 00:00:00.0000, 3.671743251942367E+08, -6.207663573014631E+08, -9.576135219603825E+07,
2459860.500000000, A.D. 2022-Oct-08 00:00:00.0000, 3.734551960713296E+08, -6.172970881691375E+08, -9.591923416383445E+07,
2459867.500000000, A.D. 2022-Oct-15 00:00:00.0000, 3.796890142711239E+08, -6.137500398078964E+08, -9.606502825521898E+07,
2459874.500000000, A.D. 2022-Oct-22 00:00:00.0000, 3.858750444876663E+08, -6.101257354143460E+08, -9.619872838326859E+07,
2459881.500000000, A.D. 2022-Oct-29 00:00:00.0000, 3.920125529118089E+08, -6.064246995093603E+08, -9.632032872340691E+07,
2459888.500000000, A.D. 2022-Nov-05 00:00:00.0000, 3.981008076929333E+08, -6.026474593794822E+08, -9.642982387097362E+07,
2459895.500000000, A.D. 2022-Nov-12 00:00:00.0000, 4.041390796281462E+08, -5.987945452429422E+08, -9.652720891587690E+07,
2459902.500000000, A.D. 2022-Nov-19 00:00:00.0000, 4.101266423596043E+08, -5.948664900945483E+08, -9.661247944652978E+07,
2459909.500000000, A.D. 2022-Nov-26 00:00:00.0000, 4.160627723421580E+08, -5.908638296268549E+08, -9.668563153974870E+07,
2459916.500000000, A.D. 2022-Dec-03 00:00:00.0000, 4.219467487472655E+08, -5.867871022392038E+08, -9.674666175288159E+07,
2459923.500000000, A.D. 2022-Dec-10 00:00:00.0000, 4.277778533485662E+08, -5.826368491159592E+08, -9.679556712085062E+07,
2459930.500000000, A.D. 2022-Dec-17 00:00:00.0000, 4.335553704136397E+08, -5.784136143988606E+08, -9.683234516239411E+07,
2459937.500000000, A.D. 2022-Dec-24 00:00:00.0000, 4.392785867111493E+08, -5.741179455191326E+08, -9.685699391084805E+07,
2459944.500000000, A.D. 2022-Dec-31 00:00:00.0000, 4.449467919909523E+08, -5.697503935815947E+08, -9.686951199340102E+07,
2459951.500000000, A.D. 2023-Jan-07 00:00:00.0000, 4.505592800600173E+08, -5.653115128382610E+08, -9.686989869136587E+07,
2459958.500000000, A.D. 2023-Jan-14 00:00:00.0000, 4.561153484872651E+08, -5.608018587547112E+08, -9.685815376039970E+07,
2459965.500000000, A.D. 2023-Jan-21 00:00:00.0000, 4.616142962925436E+08, -5.562219878418754E+08, -9.683427721073642E+07,
2459972.500000000, A.D. 2023-Jan-28 00:00:00.0000, 4.670554232877461E+08, -5.515724594485461E+08, -9.679826939977553E+07,
2459979.500000000, A.D. 2023-Feb-04 00:00:00.0000, 4.724380308617630E+08, -5.468538364869289E+08, -9.675013117043418E+07,
2459986.500000000, A.D. 2023-Feb-11 00:00:00.0000, 4.777614224142234E+08, -5.420666852850331E+08, -9.668986388637164E+07,
2459993.500000000, A.D. 2023-Feb-18 00:00:00.0000, 4.830249033748259E+08, -5.372115753891577E+08, -9.661746942546061E+07,
2460000.500000000, A.D. 2023-Feb-25 00:00:00.0000, 4.882277810711052E+08, -5.322890794781862E+08, -9.653295016869652E+07,
2460007.500000000, A.D. 2023-Mar-04 00:00:00.0000, 4.933693645468961E+08, -5.272997733707023E+08, -9.643630899221012E+07,
2460014.500000000, A.D. 2023-Mar-11 00:00:00.0000, 4.984489643602000E+08, -5.222442361241752E+08, -9.632754926476598E+07,
2460021.500000000, A.D. 2023-Mar-18 00:00:00.0000, 5.034658924076093E+08, -5.171230502753790E+08, -9.620667485887861E+07,
2460028.500000000, A.D. 2023-Mar-25 00:00:00.0000, 5.084194619787359E+08, -5.119368022688835E+08, -9.607369019780993E+07,
2460035.500000000, A.D. 2023-Apr-01 00:00:00.0000, 5.133089884654268E+08, -5.066860826798910E+08, -9.592860034501651E+07,
2460042.500000000, A.D. 2023-Apr-08 00:00:00.0000, 5.181337901107376E+08, -5.013714850063397E+08, -9.577141097931895E+07,
2460049.500000000, A.D. 2023-Apr-15 00:00:00.0000, 5.228931864608065E+08, -4.959936041365332E+08, -9.560212813168517E+07,
2460056.500000000, A.D. 2023-Apr-22 00:00:00.0000, 5.275864963286618E+08, -4.905530375441043E+08, -9.542075809883922E+07,
2460063.500000000, A.D. 2023-Apr-29 00:00:00.0000, 5.322130380049823E+08, -4.850503869571125E+08, -9.522730760038272E+07,
2460070.500000000, A.D. 2023-May-06 00:00:00.0000, 5.367721299557949E+08, -4.794862587200106E+08, -9.502178387246183E+07,
2460077.500000000, A.D. 2023-May-13 00:00:00.0000, 5.412630910304934E+08, -4.738612637420271E+08, -9.480419468153584E+07,
2460084.500000000, A.D. 2023-May-20 00:00:00.0000, 5.456852404144086E+08, -4.681760175230464E+08, -9.457454832004532E+07,
2460091.500000000, A.D. 2023-May-27 00:00:00.0000, 5.500378975194794E+08, -4.624311402864009E+08, -9.433285360437867E+07,
2460098.500000000, A.D. 2023-Jun-03 00:00:00.0000, 5.543203818706571E+08, -4.566272571925794E+08, -9.407911987857503E+07,
2460105.500000000, A.D. 2023-Jun-10 00:00:00.0000, 5.585320130118428E+08, -4.507649986476051E+08, -9.381335702736038E+07,
2460112.500000000, A.D. 2023-Jun-17 00:00:00.0000, 5.626721105203818E+08, -4.448450007661322E+08, -9.353557551187447E+07,
2460119.500000000, A.D. 2023-Jun-24 00:00:00.0000, 5.667399944501356E+08, -4.388679059335291E+08, -9.324578645314953E+07,
2460126.500000000, A.D. 2023-Jul-01 00:00:00.0000, 5.707349864564829E+08, -4.328343626387807E+08, -9.294400171912432E+07,
2460133.500000000, A.D. 2023-Jul-08 00:00:00.0000, 5.746564099295983E+08, -4.267450237563356E+08, -9.263023379470605E+07,
2460140.500000000, A.D. 2023-Jul-15 00:00:00.0000, 5.785035878593129E+08, -4.206005461070079E+08, -9.230449554918736E+07,
$$EOE